{
    "links": {
        "self": "http://www.neowsapp.com/rest/v1/neo/3484925?api_key=iIulBulltgU6a56xZRHN4H3l9WmuAYTsLGpBGhQ2"
    },
    "id": "3484925",
    "neo_reference_id": "3484925",
    "name": "(2010 AE3)",
    "designation": "2010 AE3",
    "nasa_jpl_url": "http://ssd.jpl.nasa.gov/sbdb.cgi?sstr=3484925",
    "absolute_magnitude_h": 23.7,
    "estimated_diameter": {
        "kilometers": {
            "estimated_diameter_min": 0.0483676488,
            "estimated_diameter_max": 0.1081533507
        },
        "meters": {
            "estimated_diameter_min": 48.3676488219,
            "estimated_diameter_max": 108.1533506775
        },
        "miles": {
            "estimated_diameter_min": 0.0300542543,
            "estimated_diameter_max": 0.0672033557
        },
        "feet": {
            "estimated_diameter_min": 158.6865169607,
            "estimated_diameter_max": 354.8338390368
        }
    },
    "is_potentially_hazardous_asteroid": false,
    "close_approach_data": [
        {
            "close_approach_date": "2010-01-02",
            "close_approach_date_full": "2010-Jan-02 18:07",
            "epoch_date_close_approach": 1262455620000,
            "relative_velocity": {
                "kilometers_per_second": "13.875761431",
                "kilometers_per_hour": "49952.7411516011",
                "miles_per_hour": "31038.6907450046"
            },
            "miss_distance": {
                "astronomical": "0.0420116135",
                "lunar": "16.3425176515",
                "kilometers": "6284847.894863245",
                "miles": "3905223.394252981"
            },
            "orbiting_body": "Earth"
        }
    ],
    "orbital_data": {
        "orbit_id": "11",
        "orbit_determination_date": "2017-04-06 08:58:38",
        "first_observation_date": "2010-01-08",
        "last_observation_date": "2010-01-27",
        "data_arc_in_days": 19,
        "observations_used": 45,
        "orbit_uncertainty": "8",
        "minimum_orbit_intersection": ".0412117",
        "jupiter_tisserand_invariant": "3.746",
        "epoch_osculation": "2455207.5",
        "eccentricity": ".5585725868896337",
        "semi_major_axis": "1.882151907120605",
        "inclination": "10.29749533721484",
        "ascending_node_longitude": "114.8181333140646",
        "orbital_period": "943.1492745252505",
        "perihelion_distance": ".830833447440991",
        "perihelion_argument": "289.5931546969529",
        "aphelion_distance": "2.933470366800219",
        "perihelion_time": "2455158.680338524282",
        "mean_anomaly": "18.63446074334859",
        "mean_motion": ".3816999172068619",
        "equinox": "J2000",
        "orbit_class": {
            "orbit_class_type": "APO",
            "orbit_class_description": "Near-Earth asteroid orbits which cross the Earth’s orbit similar to that of 1862 Apollo",
            "orbit_class_range": "a (semi-major axis) > 1.0 AU; q (perihelion) < 1.017 AU"
        }
    },
    "is_sentry_object": false
}